ONEWEB-0324             
1 49193U 21083H   22030.25001157 -.00008408  00000+0 -21378-1 0  9991
2 49193  87.9123 293.2849 0002298  80.5140 191.3272 13.18690592 20555
ONEWEB-0325             
1 49194U 21083J   22030.25001157 -.00009213  00000+0 -23425-1 0  9992
2 49194  87.9120 293.1736 0001553 122.1628 134.9033 13.18689576 20563
ONEWEB-0326             
1 49195U 21083K   22030.25001157 -.00011024  00000+0 -28026-1 0  9998
2 49195  87.9124 293.2676 0002030  86.8849 118.8600 13.18695888 20546
ONEWEB-0327             
1 49196U 21083L   22030.25001157 -.00008243  00000+0 -20959-1 0  9995
2 49196  87.9136 293.2218 0002948  74.8156 204.3529 13.18687943 20575
ONEWEB-0328             
1 49197U 21083M   22029.91667824 -.01165841  00000+0 -21306+0 0  9990
2 49197  87.5595 280.6783 0018910 166.4001  13.1831 14.69249019  3568
ONEWEB-0331             
1 49198U 21083N   22030.25001157 -.00010240  00000+0 -26031-1 0  9994
2 49198  87.9134 293.2677 0002147  79.8445 147.9348 13.18695454 20556
ONEWEB-0333             
1 49199U 21083P   22029.91667824 -.01162970  00000+0 -20385+0 0  9998
2 49199  87.5567 280.7098 0018821 168.2613  25.3838 14.71062178  3563
ONEWEB-0334             
1 49200U 21083Q   22030.25001157  .00031967  00000+0  33311-2 0  9995
2 49200  87.2017 279.4360 0005415 101.9479  31.5712 14.89642098 21866
ONEWEB-0335             
1 49201U 21083R   22030.25001157 -.01157977  00000+0 -21067+0 0  9991
2 49201  87.5586 280.6324 0020137 158.4780 124.6778 14.69402915 21816
ONEWEB-0336             
1 49202U 21083S   22029.91667824 -.01159791  00000+0 -20643+0 0  9997
2 49202  87.5553 280.6948 0020315 153.5385 240.7117 14.70360836  3542
ONEWEB-0337             
1 49203U 21083T   22029.91667824 -.01166338  00000+0 -20222+0 0  9996
2 49203  87.5547 280.7048 0021689 160.3345 260.0172 14.71494210  3546
ONEWEB-0338             
1 49204U 21083U   22029.91667824 -.00021202  00000+0 -22249-2 0  9990
2 49204  87.2080 279.6543 0015964 168.6096 233.4441 14.89669473  3554
ONEWEB-0339             
1 49205U 21083V   22029.91667824 -.01156271  00000+0 -20544+0 0  9990
2 49205  87.5566 280.6831 0018688 161.4863 283.2796 14.70456080  3552
ONEWEB-0340             
1 49206U 21083W   22030.25001157 -.00007896  00000+0 -20078-1 0  9992
2 49206  87.9126 293.2763 0001850  86.7482 199.7849 13.18690799 20537
ONEWEB-0341             
1 49207U 21083X   22030.25001157 -.00009539  00000+0 -24251-1 0  9996
2 49207  87.9144 293.1654 0002065 116.3839 133.4002 13.18691301 20548
ONEWEB-0342             
1 49208U 21083Y   22029.91667824 -.00034642  00000+0 -36387-2 0  9994
2 49208  87.2036 279.5908 0016941 154.9045  50.6505 14.89675989  3549
ONEWEB-0343             
1 49209U 21083Z   22030.25001157 -.00008822  00000+0 -22429-1 0  9997
2 49209  87.9136 293.2220 0001799 130.5954 133.8708 13.18691074 20601
ONEWEB-0344             
1 49210U 21083AA  22030.25001157 -.01172544  00000+0 -21313+0 0  9992
2 49210  87.5583 280.5764 0020861 154.1137 135.6252 14.69470352 21812
ONEWEB-0345             
1 49211U 21083AB  22030.25001157 -.01162141  00000+0 -21291+0 0  9990
2 49211  87.5608 280.6095 0020492 156.7462 160.8897 14.69102613 21815
ONEWEB-0346             
1 49212U 21083AC  22030.25001157 -.00010044  00000+0 -25537-1 0  9993
2 49212  87.9134 293.2172 0002391  78.8552 156.2374 13.18689933 20537
ONEWEB-0348             
1 49213U 21083AD  22030.25001157  .00043139  00000+0  44870-2 0  9995
2 49213  87.2061 279.5170 0005005 105.6710  48.1619 14.89662083 21869
ONEWEB-0350             
1 49214U 21083AE  22029.91667824 -.01177354  00000+0 -20439+0 0  9998
2 49214  87.5544 280.6942 0017909 163.3235 352.9447 14.71536698  3552
ONEWEB-0351             
1 49215U 21083AF  22030.25001157 -.00027488  00000+0 -28883-2 0  9994
2 49215  87.1993 279.3999 0013391 148.8619 133.1349 14.89671046 21870
ONEWEB-0352             
1 49216U 21083AG  22029.91667824 -.00022584  00000+0 -33844-2 0  9990
2 49216  87.5437 280.6909 0019013 157.9669 317.2855 14.74783086  3539
ONEWEB-0354             
1 49217U 21083AH  22029.91667824 -.00034624  00000+0 -36400-2 0  9990
2 49217  87.2044 279.5971 0014411 148.8184  35.4995 14.89671010  3550
ONEWEB-0355             
1 49218U 21083AJ  22029.91667824 -.01164131  00000+0 -21074+0 0  9997
2 49218  87.5596 280.6754 0018210 165.4011 341.9192 14.69670518  3568
ONEWEB-0357             
1 49219U 21083AK  22030.25001157 -.00028982  00000+0 -30441-2 0  9991
2 49219  87.2042 279.4789 0014422 156.7658 311.1742 14.89681729 21857
ONEWEB-0332             
1 49279U 21090A   22029.91667824  .00022710  00000+0  24341-2 0  9998
2 49279  87.1971 255.5437 0005898 223.5174 116.1234 14.88540582  3546
ONEWEB-0347             
1 49280U 21090B   22029.91667824  .00024110  00000+0  25882-2 0  9997
2 49280  87.2007 255.5951 0007245 258.0814 123.1241 14.88465887  3542
ONEWEB-0349             
1 49281U 21090C   22029.91667824  .00021686  00000+0  21830-2 0  9992
2 49281  87.2029 255.4649 0009882 234.2958  62.7943 14.91050305  3540
ONEWEB-0353             
1 49282U 21090D   22029.91667824  .00085212  00000+0  90929-2 0  9993
2 49282  87.1983 255.5482 0007304 226.1575 130.4594 14.88382338  3531
ONEWEB-0356             
1 49283U 21090E   22029.91667824  .00025756  00000+0  25956-2 0  9999
2 49283  87.2027 255.4715 0005426 245.1761 181.8462 14.91015553  3575
ONEWEB-0358             
1 49284U 21090F   22029.91667824  .00022987  00000+0  24665-2 0  9999
2 49284  87.1971 255.5389 0005889 221.7849 125.1428 14.88495803  3547
ONEWEB-0359             
1 49285U 21090G   22029.91667824  .00025323  00000+0  27172-2 0  9993
2 49285  87.2011 255.5924 0006234 257.8548 189.5240 14.88483314  3562
ONEWEB-0360             
1 49286U 21090H   22029.91667824  .00025834  00000+0  26036-2 0  9999
2 49286  87.2035 255.4825 0004458 231.1312 175.1039 14.91016355  3566
ONEWEB-0361             
1 49287U 21090J   22029.91667824  .00024588  00000+0  24762-2 0  9999
2 49287  87.2028 255.4745 0006195 247.7485 249.2659 14.91043713  3541
ONEWEB-0362             
1 49288U 21090K   22029.91667824  .00115168  00000+0  23323+0 0  9994
2 49288  87.9698 262.8285 0001249  89.7125 186.4982 13.32850311  3357
ONEWEB-0363             
1 49289U 21090L   22029.91667824  .00024844  00000+0  25043-2 0  9999
2 49289  87.2050 255.5048 0004026 234.2144 151.3989 14.91013676  3576
ONEWEB-0364             
1 49290U 21090M   22029.91667824  .00025328  00000+0  27256-2 0  9997
2 49290  87.2018 255.6056 0008593 253.4534 187.8091 14.88353704  3541
ONEWEB-0365             
1 49291U 21090N   22029.91667824  .00005777  00000+0  11747-1 0  9991
2 49291  87.9670 262.8127 0001182  66.6095  14.5163 13.33254575  3366
ONEWEB-0366             
1 49292U 21090P   22029.91667824  .00021284  00000+0  22860-2 0  9992
2 49292  87.1993 255.5668 0006401 224.7365  73.9166 14.88458978  3559
ONEWEB-0367             
1 49293U 21090Q   22029.91667824  .00024006  00000+0  24176-2 0  9990
2 49293  87.2070 255.5321 0004383 233.9470 127.9928 14.91053596  3556
ONEWEB-0368             
1 49294U 21090R   22029.91667824  .00023665  00000+0  25393-2 0  9993
2 49294  87.2037 255.6280 0008350 240.7519 271.7686 14.88478878  3541
ONEWEB-0369             
1 49295U 21090S   22030.16667824  .00000013  00000+0  00000+0 0  9990
2 49295  87.9643 262.7159 0002385  67.8616 278.9321 13.32944911 16794
ONEWEB-0370             
1 49296U 21090T   22029.91667824  .00024149  00000+0  24334-2 0  9997
2 49296  87.2009 255.4487 0007902 243.1543 267.3722 14.91013740  3566
ONEWEB-0371             
1 49297U 21090U   22030.25001157 -.00060908  00000+0 -12545+0 0  9991
2 49297  87.9663 262.6442 0003617 327.9732 226.3125 13.33066839 16839
ONEWEB-0372             
1 49298U 21090V   22029.91667824  .00020957  00000+0  21103-2 0  9993
2 49298  87.2019 255.4488 0009127 237.5183  29.9769 14.91043914  3545
ONEWEB-0373             
1 49299U 21090W   22029.91667824  .00020476  00000+0  21998-2 0  9992
2 49299  87.1991 255.5712 0006085 226.5486  18.2226 14.88452947  3566
ONEWEB-0374             
1 49300U 21090X   22029.91667824  .00022054  00000+0  23677-2 0  9995
2 49300  87.2020 255.6130 0006034 260.9830  65.3563 14.88474667  3534
ONEWEB-0375             
1 49301U 21090Y   22029.91667824  .00024592  00000+0  26392-2 0  9992
2 49301  87.1972 255.5412 0003896 223.8151 169.3923 14.88488818  3559
ONEWEB-0376             
1 49302U 21090Z   22030.25001157 -.00053442  00000+0 -11046+0 0  9998
2 49302  87.9716 262.7020 0001047 344.3340 240.1293 13.32784878 16829
ONEWEB-0377             
1 49303U 21090AA  22029.91667824  .00006103  00000+0  65446-3 0  9996
2 49303  87.2017 255.6104 0004975 265.5940 192.6337 14.88488710  3547
ONEWEB-0378             
1 49304U 21090AB  22029.91667824  .00022978  00000+0  23137-2 0  9995
2 49304  87.1974 255.3901 0009432 207.9524 120.0258 14.91037432  3566
ONEWEB-0379             
1 49305U 21090AC  22029.91667824  .00024828  00000+0  26626-2 0  9998
2 49305  87.2008 255.5867 0008528 243.9968 240.5659 14.88495620  3540
ONEWEB-0380             
1 49306U 21090AD  22030.25001157 -.00041915  00000+0 -86054-1 0  9997
2 49306  87.9623 262.7244 0001483  85.2807 240.9125 13.33145872 16807
ONEWEB-0381             
1 49307U 21090AE  22029.91667824  .00025354  00000+0  25529-2 0  9996
2 49307  87.2058 255.5091 0005068 245.3913 226.6990 14.91052799  3541
ONEWEB-0382             
1 49308U 21090AF  22029.91667824 -.00053203  00000+0 -54199-2 0  9998
2 49308  87.2012 255.4236 0009625 218.9618 205.8118 14.91075754  3562
ONEWEB-0383             
1 49309U 21090AG  22029.91667824  .00025343  00000+0  27272-2 0  9993
2 49309  87.2000 255.5706 0008951 236.6059 192.0868 14.88351640  3544
ONEWEB-0384             
1 49310U 21090AH  22029.91667824  .00025680  00000+0  25863-2 0  9993
2 49310  87.2004 255.4328 0009205 215.1074 194.1868 14.91021022  3579
